NORAD_CAT_ID,OBJECT_NAME,OBJECT_TYPE,EPOCH,MEAN_MOTION,ECCENTRICITY,INCLINATION,RA_OF_ASC_NODE,ARG_OF_PERICENTER,MEAN_ANOMALY,BSTAR,MEAN_MOTION_DOT,MEAN_MOTION_DDOT,TLE_LINE0,TLE_LINE1,TLE_LINE2,SEMIMAJOR_AXIS,PERIOD,APOGEE,PERIGEE,DECAYED
56488.0,STARLINK-6204,PAYLOAD,2023-12-05 06:00:00,14.99358946,0.0002707,70.001,25.9052,273.9454,97.1975,-0.0028588,-0.00034953,0.0,0 STARLINK-6204,1 56488U 23064AS  23339.25001157 -.00034953  00000-0 -28588-2 0  9996,2 56488  70.0010  25.9052 0002707 273.9454  97.1975 14.99358946 32948,6947.013,96.041,570.758,566.997,0.0
56488.0,STARLINK-6204,PAYLOAD,2023-12-05 14:00:01,14.99324363,0.0002703,70.0008,25.0632,279.0616,90.7869,-0.0013704,-0.00016832,0.0,0 STARLINK-6204,1 56488U 23064AS  23339.58334491 -.00016832  00000-0 -13704-2 0  9992,2 56488  70.0008  25.0632 0002703 279.0616  90.7869 14.99324363  5816,6947.12,96.043,570.862,567.107,0.0
56488.0,STARLINK-6204,PAYLOAD,2023-12-05 22:00:00,14.99281792,0.0002636,70.0008,24.2215,271.3941,97.1335,0.0037483,0.00046049,0.0,0 STARLINK-6204,1 56488U 23064AS  23339.91667824  .00046049  00000-0  37483-2 0  9999,2 56488  70.0008  24.2215 0002636 271.3941  97.1335 14.99281792  5867,6947.251,96.046,570.947,567.285,0.0
56488.0,STARLINK-6204,PAYLOAD,2023-12-06 10:46:21,14.99297612,0.0002074,70.0005,22.8798,263.3575,96.7348,0.00018089,2.12e-05,0.0,0 STARLINK-6204,1 56488U 23064AS  23340.44885480  .00002120  00000-0  18089-3 0  9993,2 56488  70.0005  22.8798 0002074 263.3575  96.7348 14.99297612 33121,6947.202,96.045,570.508,567.626,0.0
56488.0,STARLINK-6204,PAYLOAD,2023-12-06 12:22:25,14.99302151,0.0002672,69.9989,22.71,278.0334,82.0523,0.00019518,2.295e-05,0.0,0 STARLINK-6204,1 56488U 23064AS  23340.51556836  .00002295  00000-0  19518-3 0  9992,2 56488  69.9989  22.7100 0002672 278.0334  82.0523 14.99302151 32773,6947.188,96.045,570.91,567.197,0.0
56488.0,STARLINK-6204,PAYLOAD,2023-12-07 04:23:08,14.99310733,0.0002942,69.9999,21.0288,279.4385,80.6442,-0.00012216,-1.589e-05,0.0,0 STARLINK-6204,1 56488U 23064AS  23341.18273482 -.00001589  00000-0 -12216-3 0  9994,2 56488  69.9999  21.0288 0002942 279.4385  80.6442 14.99310733 33235,6947.162,96.044,571.071,566.983,0.0
56488.0,STARLINK-6204,PAYLOAD,2023-12-07 12:23:29,14.99310951,0.0002669,69.999,20.1824,271.3603,88.725,-0.00014889,-1.916e-05,0.0,0 STARLINK-6204,1 56488U 23064AS  23341.51631633 -.00001916  00000-0 -14889-3 0  9999,2 56488  69.9990  20.1824 0002669 271.3603  88.7250 14.99310951 32925,6947.161,96.044,570.88,567.172,0.0
56488.0,STARLINK-6204,PAYLOAD,2023-12-08 04:24:12,14.99303105,0.0002743,69.999,18.4991,275.0083,85.0763,-4.7241e-05,-6.72e-06,0.0,0 STARLINK-6204,1 56488U 23064AS  23342.18348353 -.00000672  00000-0 -47241-4 0  9994,2 56488  69.9990  18.4991 0002743 275.0083  85.0763 14.99303105 33389,6947.185,96.045,570.956,567.145,0.0
56488.0,STARLINK-6204,PAYLOAD,2023-12-08 10:48:29,14.99320373,0.0002466,69.9989,17.825,269.6058,90.4819,-0.00032913,-4.121e-05,0.0,0 STARLINK-6204,1 56488U 23064AS  23342.45034631 -.00004121  00000-0 -32913-3 0  9997,2 56488  69.9989  17.8250 0002466 269.6058  90.4819 14.99320373 33424,6947.132,96.044,570.71,567.284,0.0
56488.0,STARLINK-6204,PAYLOAD,2023-12-08 12:24:34,14.99314191,0.0002549,69.999,17.6567,271.7574,88.3293,-0.00022652,-2.865e-05,0.0,0 STARLINK-6204,1 56488U 23064AS  23342.51706398 -.00002865  00000-0 -22652-3 0  9992,2 56488  69.9990  17.6567 0002549 271.7574  88.3293 14.99314191 33078,6947.151,96.044,570.787,567.245,0.0
56488.0,STARLINK-6204,PAYLOAD,2023-12-09 04:25:17,14.99301195,0.0002677,69.9989,15.9701,268.9243,91.161,1.8002e-05,1.26e-06,0.0,0 STARLINK-6204,1 56488U 23064AS  23343.18423268  .00000126  00000-0  18002-4 0  9999,2 56488  69.9989  15.9701 0002677 268.9243  91.1610 14.99301195 33536,6947.191,96.045,570.916,567.196,0.0
56488.0,STARLINK-6204,PAYLOAD,2023-12-09 12:25:39,14.9930268,0.0002661,69.9989,15.1277,269.1474,90.938,3.4654e-05,3.3e-06,0.0,0 STARLINK-6204,1 56488U 23064AS  23343.51781495  .00000330  00000-0  34654-4 0  9993,2 56488  69.9989  15.1277 0002661 269.1474  90.9380 14.99302680 33225,6947.187,96.045,570.9,567.203,0.0
56488.0,STARLINK-6204,PAYLOAD,2023-12-10 12:26:44,14.99299223,0.0002542,69.999,12.6001,269.2238,90.863,9.5732e-06,2.3e-07,0.0,0 STARLINK-6204,1 56488U 23064AS  23344.51856912  .00000023  00000-0  95732-5 0  9995,2 56488  69.9990  12.6001 0002542 269.2238  90.8630 14.99299223 33372,6947.197,96.045,570.828,567.296,0.0
56488.0,STARLINK-6204,PAYLOAD,2023-12-11 10:51:44,14.99298972,0.0002482,69.9996,10.2429,255.9886,104.0998,-1.5911e-05,-2.88e-06,0.0,0 STARLINK-6204,1 56488U 23064AS  23345.45260348 -.00000288  00000-0 -15911-4 0  9996,2 56488  69.9996  10.2429 0002482 255.9886 104.0998 14.99298972 33511,6947.198,96.045,570.787,567.339,0.0
56488.0,STARLINK-6204,PAYLOAD,2023-12-12 02:52:28,14.99301808,0.0002862,69.9989,8.5576,266.4498,93.6334,-1.3697e-05,-2.61e-06,0.0,0 STARLINK-6204,1 56488U 23064AS  23346.11976903 -.00000261  00000-0 -13697-4 0  9991,2 56488  69.9989   8.5576 0002862 266.4498  93.6334 14.99301808 33974,6947.189,96.045,571.043,567.066,0.0
56488.0,STARLINK-6204,PAYLOAD,2023-12-12 10:52:49,14.9930445,0.0002732,69.9989,7.7148,264.1898,95.895,-6.4732e-05,-8.86e-06,0.0,0 STARLINK-6204,1 56488U 23064AS  23346.45335211 -.00000886  00000-0 -64732-4 0  9998,2 56488  69.9989   7.7148 0002732 264.1898  95.8950 14.99304450 33665,6947.181,96.045,570.944,567.148,0.0
56488.0,STARLINK-6204,PAYLOAD,2023-12-13 02:53:33,14.99299377,0.0002593,69.999,6.03,257.1084,102.9786,8.286e-07,-8.4e-07,0.0,0 STARLINK-6204,1 56488U 23064AS  23347.12052159 -.00000084  00000-0  82860-6 0  9993,2 56488  69.9990   6.0300 0002593 257.1084 102.9786 14.99299377 34123,6947.197,96.045,570.863,567.26,0.0
56488.0,STARLINK-6204,PAYLOAD,2023-12-13 10:53:54,14.99299575,0.0002683,69.999,5.1877,261.373,98.7126,1.1465e-06,-8e-07,0.0,0 STARLINK-6204,1 56488U 23064AS  23347.45410557 -.00000080  00000-0  11465-5 0  9997,2 56488  69.9990   5.1877 0002683 261.3730  98.7126 14.99299575 33812,6947.196,96.045,570.925,567.197,0.0
56488.0,STARLINK-6204,PAYLOAD,2023-12-14 04:30:42,14.99298896,0.0002668,69.9991,3.3342,259.8823,100.2035,-1.2036e-05,-2.41e-06,0.0,0 STARLINK-6204,1 56488U 23064AS  23348.18799124 -.00000241  00000-0 -12036-4 0  9992,2 56488  69.9991   3.3342 0002668 259.8823 100.2035 14.99298896 34283,6947.198,96.045,570.917,567.21,0.0
56488.0,STARLINK-6204,PAYLOAD,2023-12-14 10:54:59,14.99298575,0.0002674,69.9992,2.6603,261.0418,99.0439,-1.4254e-05,-2.68e-06,0.0,0 STARLINK-6204,1 56488U 23064AS  23348.45485898 -.00000268  00000-0 -14254-4 0  9995,2 56488  69.9992   2.6603 0002674 261.0418  99.0439 14.99298575 33969,6947.199,96.045,570.922,567.207,0.0
56488.0,STARLINK-6204,PAYLOAD,2023-12-15 04:31:47,14.99299712,0.0002713,69.9991,0.8068,262.4841,97.6011,-5.4307e-06,-1.6e-06,0.0,0 STARLINK-6204,1 56488U 23064AS  23349.18874306 -.00000160  00000-0 -54307-5 0  9997,2 56488  69.9991   0.8068 0002713 262.4841  97.6011 14.99299712 34439,6947.196,96.045,570.946,567.176,0.0
56488.0,STARLINK-6204,PAYLOAD,2023-12-15 10:56:04,14.99299171,0.000273,69.9991,0.1328,263.7603,96.3246,-1.1032e-05,-2.29e-06,0.0,0 STARLINK-6204,1 56488U 23064AS  23349.45561097 -.00000229  00000-0 -11032-4 0  9990,2 56488  69.9991   0.1328 0002730 263.7603  96.3246 14.99299171 34110,6947.197,96.045,570.959,567.166,0.0
56488.0,STARLINK-6204,PAYLOAD,2023-12-16 10:57:09,14.99303387,0.0002639,69.9993,357.6054,262.5034,97.5825,3.8277e-05,3.75e-06,0.0,0 STARLINK-6204,1 56488U 23064AS  23350.45635879  .00000375  00000-0  38277-4 0  9992,2 56488  69.9993 357.6054 0002639 262.5034  97.5825 14.99303387 34628,6947.184,96.045,570.883,567.216,0.0
56488.0,STARLINK-6204,PAYLOAD,2023-12-17 02:57:53,14.99297216,0.0002533,69.9998,355.9209,263.9774,96.1097,6.2973e-07,-8.6e-07,0.0,0 STARLINK-6204,1 56488U 23064AS  23351.12353175 -.00000086  00000-0  62973-6 0  9995,2 56488  69.9998 355.9209 0002533 263.9774  96.1097 14.99297216 34725,6947.203,96.045,570.828,567.309,0.0
56488.0,STARLINK-6204,PAYLOAD,2023-12-17 09:22:10,14.99296197,0.0002536,69.9998,355.247,262.4376,97.6496,-4.5145e-06,-1.49e-06,0.0,0 STARLINK-6204,1 56488U 23064AS  23351.39040011 -.00000149  00000-0 -45145-5 0  9998,2 56488  69.9998 355.2470 0002536 262.4376  97.6496 14.99296197 34404,6947.207,96.045,570.833,567.31,0.0
56488.0,STARLINK-6204,PAYLOAD,2023-12-18 02:59:02,14.99241284,0.00039,69.9999,353.3949,290.2848,69.7892,-0.00065509,-8.089e-05,0.0,0 STARLINK-6204,1 56488U 23064AS  23352.12433494 -.00008089  00000-0 -65509-3 0  9996,2 56488  69.9999 353.3949 0003900 290.2848  69.7892 14.99241284 34872,6947.376,96.049,571.951,566.532,0.0
56488.0,STARLINK-6204,PAYLOAD,2023-12-18 09:23:42,14.98975546,0.0002651,69.9998,352.7219,254.6341,105.4526,-0.0034472,-0.0004167,0.0,0 STARLINK-6204,1 56488U 23064AS  23352.39146440 -.00041670  00000-0 -34472-2 0  9994,2 56488  69.9998 352.7219 0002651 254.6341 105.4526 14.98975546 34919,6948.197,96.066,571.904,568.22,0.0
56488.0,STARLINK-6204,PAYLOAD,2023-12-18 15:48:18,14.98799925,0.0002468,69.9998,352.0491,259.2576,100.8305,-0.0050446,-0.00060497,0.0,0 STARLINK-6204,1 56488U 23064AS  23352.65854887 -.00060497  00000-0 -50446-2 0  9991,2 56488  69.9998 352.0491 0002468 259.2576 100.8305 14.98799925 34954,6948.74,96.077,572.32,568.89,0.0
56488.0,STARLINK-6204,PAYLOAD,2023-12-19 03:01:06,14.98726416,0.0003119,69.9986,350.8689,264.9381,95.1423,-0.005211,-0.00062357,0.0,0 STARLINK-6204,1 56488U 23064AS  23353.12576872 -.00062357  00000-0 -52110-2 0  9996,2 56488  69.9986 350.8689 0003119 264.9381  95.1423 14.98726416 35028,6948.967,96.082,573.0,568.665,0.0
56488.0,STARLINK-6204,PAYLOAD,2023-12-19 09:25:33,14.98698636,0.0003146,69.9988,350.1962,264.3709,95.7092,-0.0051032,-0.00061037,0.0,0 STARLINK-6204,1 56488U 23064AS  23353.39274977 -.00061037  00000-0 -51032-2 0  9992,2 56488  69.9988 350.1962 0003146 264.3709  95.7092 14.98698636 34709,6949.053,96.083,573.104,568.732,0.0
